[
    {
        "Altitude(m)": 610399.5329552699,
        "Argument of Periapsis(deg)": 0.0,
        "Eccentricity": 0.0,
        "Inclination(deg)": 60.0,
        "Latitude(deg)": 52.11134630252222,
        "Longitude(deg)": -2.4158413497564224,
        "Mean Anomaly(deg)": 65.45450000000001,
        "RAAN(deg)": 50.0,
        "Satellite Name": "Test1 224",
        "Satellite Number": 224,
        "Semi-Major Axis(m)": 6980739.136638005,
        "Time(s)": 0
    },
    {
        "Altitude(m)": 610481.6845950723,
        "Argument of Periapsis(deg)": 0.00010418945913296404,
        "Eccentricity": 0.0,
        "Inclination(deg)": 60.0,
        "Latitude(deg)": 52.47095012479173,
        "Longitude(deg)": -1.6337068363627527,
        "Mean Anomaly(deg)": 66.07460614546181,
        "RAAN(deg)": 49.99957995086026,
        "Satellite Name": "Test1 224",
        "Satellite Number": 224,
        "Semi-Major Axis(m)": 6980739.136638005,
        "Time(s)": 10
    }
]